     2.100          NAVIGATION                              RINEX VERSION / TYPE
fic2rin                                 09/08/2014 00:13:21 PGM / RUN BY / DATE
                                                            END OF HEADER
20 14  9  7 14  0  0.0  .231092330068D-03  .443378667114D-11  .000000000000D+00
     .900000000000D+02  .737812500000D+02  .530986403429D-08 -.255700099091D+01
     .389292836189D-05  .592228735331D-02  .826269388199D-05  .515373491669D+04
     .504000000000D+05  .111758708954D-07 -.259691165339D+01 -.204890966415D-07
     .926852123180D+00  .202781250000D+03  .132924216087D+01 -.839677833095D-08
     .553594488004D-09  .100000000000D+01  .180900000000D+04  .000000000000D+00
     .240000000000D+01  .000000000000D+00 -.791624188423D-08  .900000000000D+02
     .432060000000D+05  .400000000000D+01
21 14  9  7 14  0  0.0 -.382703263313D-03 -.204636307899D-11  .000000000000D+00
     .105000000000D+03 -.869687500000D+02  .460340603605D-08 -.211850391432D+01
    -.457279384136D-05  .216275928542D-01  .133123248816D-04  .515371288490D+04
     .504000000000D+05  .298023223877D-06  .269512422416D+01 -.100582838058D-06
     .933188458794D+00  .100875000000D+03 -.199718428770D+01 -.775675167127D-08
    -.196436753808D-10  .100000000000D+01  .180900000000D+04  .000000000000D+00
     .240000000000D+01  .000000000000D+00 -.111758708954D-07  .105000000000D+03
     .432060000000D+05  .400000000000D+01
22 14  9  7 14  0  0.0  .265783630311D-03  .341060513165D-11  .000000000000D+00
     .470000000000D+02  .692187500000D+02  .545058418157D-08  .266893586053D+01
     .354088842869D-05  .736929988489D-02  .804848968983D-05  .515372074127D+04
     .504000000000D+05  .353902578354D-07 -.254228271109D+01 -.108033418655D-06
     .923522229048D+00  .202375000000D+03 -.205039911634D+01 -.843177978890D-08
     .597167731576D-09  .100000000000D+01  .180900000000D+04  .000000000000D+00
     .240000000000D+01  .000000000000D+00 -.172294676304D-07  .470000000000D+02
     .432060000000D+05  .400000000000D+01
24 14  9  7 14  0  0.0 -.348021276295D-04 -.568434188608D-12  .000000000000D+00
     .270000000000D+02  .931250000000D+01  .435160983345D-08 -.226877751900D+00
     .506639480591D-06  .218800397124D-02  .144969671965D-04  .515371870804D+04
     .504000000000D+05  .577419996262D-07 -.448814113241D+00 -.279396772385D-07
     .956183854496D+00  .980000000000D+02  .255236865057D+00 -.793890211571D-08
    -.265011038773D-09  .100000000000D+01  .180900000000D+04  .000000000000D+00
     .240000000000D+01  .000000000000D+00  .279396772385D-08  .270000000000D+02
     .432060000000D+05  .400000000000D+01
25 14  9  7 14  0  0.0  .220481306314D-04 -.909494701773D-12  .000000000000D+00
     .560000000000D+02  .124843750000D+03  .444447084434D-08 -.228680359997D+01
     .642240047455D-05  .367121479940D-02  .660307705402D-05  .515355758095D+04
     .504000000000D+05  .949949026108D-07  .607788007736D+00 -.931322574615D-07
     .976998729839D+00  .260593750000D+03  .726460191503D+00 -.821569935971D-08
     .625383192577D-09  .100000000000D+01  .180900000000D+04  .000000000000D+00
     .240000000000D+01  .000000000000D+00  .558793544769D-08  .560000000000D+02
     .432060000000D+05  .400000000000D+01
26 14  9  7 14  0  0.0 -.468394719064D-04 -.130739863380D-10  .000000000000D+00
     .350000000000D+02 -.452187500000D+02  .466233706220D-08  .412556715615D+00
    -.243261456490D-05  .212239554385D-01  .636652112007D-05  .515367968941D+04
     .504000000000D+05 -.299885869026D-06 -.138513455237D+01  .279396772385D-07
     .973516886795D+00  .267937500000D+03  .129203382114D+01 -.855642783814D-08
    -.590381734626D-09  .100000000000D+01  .180900000000D+04  .000000000000D+00
     .240000000000D+01  .000000000000D+00 -.605359673500D-08  .350000000000D+02
     .432060000000D+05  .400000000000D+01
27 14  9  7 14  0  0.0  .125411897898D-04  .306954461848D-11  .000000000000D+00
     .910000000000D+02 -.743125000000D+02  .500770859116D-08  .152302271224D+01
    -.374950468540D-05  .146317831241D-02  .237300992012D-05  .515367595863D+04
     .504000000000D+05  .707805156708D-07  .165457813820D+01  .484287738800D-07
     .964145161476D+00  .334843750000D+03  .347750338546D+00 -.861643033748D-08
    -.319299014371D-09  .100000000000D+01  .180900000000D+04  .000000000000D+00
     .240000000000D+01  .000000000000D+00  .186264514923D-08  .910000000000D+02
     .432060000000D+05  .400000000000D+01
28 14  9  7 14  0  0.0  .382667873055D-03  .261479726760D-11  .000000000000D+00
     .200000000000D+01  .112625000000D+03  .411588572888D-08  .249424641204D+01
     .562705099583D-05  .192612784449D-01  .513345003128D-05  .515367756653D+04
     .504000000000D+05  .242143869400D-06  .675638591516D+00 -.139698386192D-06
     .987426327984D+00  .291125000000D+03 -.170855554214D+01 -.776318051049D-08
     .430017911972D-09  .100000000000D+01  .180900000000D+04  .000000000000D+00
     .340000000000D+01  .000000000000D+00 -.107102096081D-07  .258000000000D+03
     .432060000000D+05  .400000000000D+01
29 14  9  7 14  0  0.0  .558786094189D-03  .250111042988D-11  .000000000000D+00
     .970000000000D+02 -.904062500000D+02  .479269963518D-08 -.194067016772D+01
    -.479258596897D-05  .118090363685D-02  .299327075481D-05  .515364146614D+04
     .504000000000D+05 -.689178705215D-07  .170993416688D+01  .391155481339D-07
     .970137843004D+00  .324187500000D+03 -.794734042834D+00 -.853285542768D-08
    -.474662628747D-09  .100000000000D+01  .180900000000D+04  .000000000000D+00
     .240000000000D+01  .000000000000D+00 -.977888703346D-08  .970000000000D+02
     .432060000000D+05  .400000000000D+01
30 14  9  7 14  0  0.0 -.590016134083D-04 -.477484718431D-11  .000000000000D+00
     .380000000000D+02  .328750000000D+02  .428124975981D-08 -.120635753814D+01
     .146217644215D-05  .102226051968D-02  .130683183670D-04  .515366710281D+04
     .504000000000D+05  .931322574615D-08 -.359448121166D+00 -.111758708954D-07
     .958546715890D+00  .125593750000D+03  .308861458654D+01 -.784996983990D-08
    -.115361948145D-09  .100000000000D+01  .180900000000D+04  .000000000000D+00
     .240000000000D+01  .000000000000D+00  .325962901115D-08  .380000000000D+02
     .432060000000D+05  .400000000000D+01
31 14  9  7 14  0  0.0  .331962481141D-03 -.454747350886D-12  .000000000000D+00
     .440000000000D+02  .114375000000D+02  .390159108836D-08 -.114420667630D+01
     .333413481712D-06  .802570278756D-02  .138934701681D-04  .515362393570D+04
     .504000000000D+05 -.126659870148D-06 -.405848876343D+00 -.651925802231D-07
     .977827704072D+00  .123656250000D+03 -.632873019530D+00 -.771174979676D-08
    -.857178562071D-10  .100000000000D+01  .180900000000D+04  .000000000000D+00
     .240000000000D+01  .000000000000D+00 -.130385160446D-07  .440000000000D+02
     .432060000000D+05  .400000000000D+01
11 14  9  7 13 59 44.0 -.519407447428D-03 -.284217094304D-11  .000000000000D+00
     .900000000000D+01 -.101062500000D+03  .611489756717D-08 -.976277830142D+00
    -.519305467606D-05  .154753355309D-01  .950135290623D-05  .515371562195D+04
     .503840000000D+05 -.188127160072D-06  .237897723905D+01  .320374965668D-06
     .891428054894D+00  .158843750000D+03  .132844091917D+01 -.907573518366D-08
    -.426089176896D-09  .100000000000D+01  .180900000000D+04  .000000000000D+00
     .240000000000D+01  .000000000000D+00 -.121071934700D-07  .900000000000D+01
     .435060000000D+05  .400000000000D+01
 1 14  9  7 13 59 44.0  .208513811231D-04  .568434188608D-12  .000000000000D+00
     .210000000000D+02 -.675312500000D+02  .420874673977D-08 -.551799043159D+00
    -.366382300854D-05  .346484035254D-02  .126771628857D-04  .515368439293D+04
     .503840000000D+05  .596046447754D-07  .271039983042D+01  .484287738800D-07
     .961667621934D+00  .136687500000D+03  .400597708491D+00 -.791390107432D-08
    -.213223167315D-09  .100000000000D+01  .180900000000D+04  .000000000000D+00
     .240000000000D+01  .000000000000D+00  .558793544769D-08  .210000000000D+02
     .486360000000D+05  .400000000000D+01
 1 14  9  7 15 59 44.0  .208555720747D-04  .568434188608D-12  .000000000000D+00
     .270000000000D+02 -.777187500000D+02  .434160941689D-08  .498513924237D+00
    -.394135713577D-05  .346388563048D-02  .124275684357D-04  .515368261147D+04
     .575840000000D+05  .223517417908D-07  .271034261715D+01  .391155481339D-07
     .961665935189D+00  .136937500000D+03  .400457281522D+00 -.795175979414D-08
    -.207865801302D-09  .100000000000D+01  .180900000000D+04  .000000000000D+00
     .240000000000D+01  .000000000000D+00  .558793544769D-08  .270000000000D+02
     .504060000000D+05  .400000000000D+01
 2 14  9  7 16  0  0.0  .517085194588D-03  .216004991671D-11  .000000000000D+00
     .400000000000D+02 -.695937500000D+02  .483841582515D-08  .120390143034D+01
    -.351481139660D-05  .137496305397D-01  .130999833345D-04  .515367966843D+04
     .576000000000D+05 -.158324837685D-06  .267850206179D+01  .147148966789D-06
     .940201947002D+00  .121187500000D+03 -.239146301371D+01 -.832284667997D-08
    -.339299847486D-09  .100000000000D+01  .180900000000D+04  .000000000000D+00
     .240000000000D+01  .000000000000D+00 -.200234353542D-07  .400000000000D+02
     .504060000000D+05  .400000000000D+01
 4 14  9  7 16  0  0.0 -.537838786840D-06 -.341060513165D-12  .000000000000D+00
     .990000000000D+02 -.652812500000D+02  .485234497679D-08 -.609457258707D+00
    -.338815152645D-05  .110198432812D-01  .121109187603D-04  .515199795151D+04
     .576000000000D+05 -.800937414169D-07  .269425596034D+01  .176951289177D-06
     .939222723768D+00  .134656250000D+03  .107290024260D+01 -.837356307823D-08
    -.208222959036D-09  .100000000000D+01  .180900000000D+04  .000000000000D+00
     .240000000000D+01  .000000000000D+00 -.651925802231D-08  .990000000000D+02
     .504060000000D+05  .400000000000D+01
